SHIYAN 12 02 (SY-12 02) 
1 50322U 21129B   22361.75740670 -.00000235  00000+0  00000+0 0  9996
2 50322   0.4054 110.0678 0007195 167.1944 243.5095  0.99984266  3806
TJS-9                   
1 50574U 21135A   22361.56854723 -.00000297  00000+0  00000+0 0  9994
2 50574   0.0720  79.2043 0001704 158.2832 200.4670  1.00270519  3724
USA 324                 
1 51280U 22006A   22361.45049385 -.00000317  00000+0  00000+0 0  9998
2 51280   0.2593  94.7429 0000164  52.4792 210.2182  1.00411650  3391
USA 325                 
1 51281U 22006B   22361.24007625 -.00000074  00000+0  00000+0 0  9997
2 51281   0.1952  93.1465 0000545 309.1549 209.9689  1.00433348  3393
GOES 18                 
1 51850U 22021A   22361.36577071  .00000099  00000+0  00000+0 0  9992
2 51850   0.0434 186.7949 0000853  68.6026 195.1663  1.00270495  3068
CHINASAT 6D             
1 52255U 22038A   22361.65383500 -.00000352  00000+0  00000+0 0  9997
2 52255   0.0269  51.4442 0001302 225.9822 179.1141  1.00268089  2734
NILESAT 301             
1 52817U 22061A   22360.69632847 -.00000054  00000+0  00000+0 0  9990
2 52817   0.0403  24.9351 0004224 270.6049  43.2842  1.00271303  2020
CMS-02 (GSAT 24)        
1 52903U 22067A   22361.50857903 -.00000163  00000+0  00000+0 0  9996
2 52903   0.0638 269.2570 0003889 182.8106 269.9923  1.00271333  1903
MEASAT 3D               
1 52904U 22067B   22361.54355213 -.00000239  00000+0  00000+0 0  9992
2 52904   0.0566 302.7509 0002936 353.4114  87.0076  1.00268671  1938
SES-22                  
1 52933U 22071A   22361.51785716  .00000091  00000+0  00000+0 0  9996
2 52933   0.0141   9.1298 0002575 269.5265 228.7259  1.00271115  1838
WFOV (USA 332)          
1 52940U 22073A   22361.51581373 -.00000360  00000+0  00000+0 0  9999
2 52940   0.4420  97.3492 0003499 209.4930  94.1338  1.00270439  1654
TIANLIAN 2-03           
1 53100U 22078A   22361.37271436  .00000076  00000+0  00000+0 0  9996
2 53100   2.6052 283.2444 0001163  92.1767 225.2004  1.00273454  1839
SBIRS GEO-6 (USA 336)   
1 53355U 22092A   22360.98373286  .00000121  00000+0  00000+0 0  9997
2 53355   6.3047 311.8288 0003261 321.3848  31.3904  1.00271705  1515
CHINASAT 1E (ZX 1E)     
1 53813U 22112A   22361.57996725 -.00000146  00000+0  00000+0 0  9992
2 53813   1.2536 279.3219 0002430   1.8367 105.0753  1.00269745  1136
SES-20                  
1 53960U 22123A   22360.96934112 -.00000098  00000+0  00000+0 0  9997
2 53960   0.0755 117.6043 0000363 118.0403 105.6641  1.00270815   820
SES-21                  
1 53961U 22123B   22361.10169253  .00000073  00000+0  00000+0 0  9993
2 53961   0.0206  58.9238 0000343 219.2379  82.9878  1.00269402   840
GALAXY 33 (G-33)        
1 54026U 22128A   22361.51785716  .00000081  00000+0  00000+0 0  9993
2 54026   0.0174  20.2986 0001711 252.3075 236.8000  1.00271744  1042
GALAXY 34 (G-34)        
1 54027U 22128B   22361.09275350  .00000062  00000+0  00000+0 0  9994
2 54027   0.0216 350.1165 0001687  90.9297 278.9729  1.00270718  1201
ANGOSAT 2               
1 54033U 22131A   22361.49655024  .00000137  00000+0  00000+0 0  9992
2 54033   0.0168  51.7849 0000358 240.8791   5.0305  1.00270469   757
2022-148A               
1 54230U 22148A   22361.61299309 -.00000078  00000+0  10000-3 0  9993
2 54230   0.0308 124.4879 0006913 139.0587 216.5809  1.00271034   654
GALAXY 31 (G-31)        
1 54243U 22153A   22361.41021580  .00000113  00000+0  00000+0 0  9999
2 54243   0.0515 116.5773 0001935 160.0274 181.8403  1.00461056   434
GALAXY 32 (G-32)        
1 54244U 22153B   22361.26042962  .00000134  00000+0  00000+0 0  9993
2 54244   0.0356  70.9151 0002282 211.3852 118.1190  1.00270368   451
